{
  "type": "FeatureCollection",
  "features": [
    {
      "type": "Feature",
      "properties": {
        "norad_id": 44231,
        "name": "BEIDOU-2 G8 (C01)",
        "group": "gnss",
        "lat": 1.675050362689282,
        "lon": 157.72836203912917,
        "alt_km": 35818.79982874112,
        "timestamp": "2025-12-19T18:58:41.832382+00:00",
        "meta_object_name": "BEIDOU-2 G8 (C01)",
        "meta_object_id": "2019-027A",
        "meta_epoch": "2025-12-19T07:06:10.829088",
        "meta_mean_motion": 1.00276635,
        "meta_eccentricity": 0.00081822,
        "meta_inclination": 1.6779,
        "meta_ra_of_asc_node": 74.7271,
        "meta_arg_of_pericenter": 258.4775,
        "meta_mean_anomaly": 5.9166,
        "meta_ephemeris_type": 0,
        "meta_classification_type": "U",
        "meta_norad_cat_id": 44231,
        "meta_element_set_no": 999,
        "meta_rev_at_epoch": 2427,
        "meta_bstar": 0,
        "meta_mean_motion_dot": -2.24e-06,
        "meta_mean_motion_ddot": 0,
        "tle_line1": "1 44231U 19027A   25353.29595867 -.00000224  00000+0  00000+0 0  9999",
        "tle_line2": "2 44231   1.6779  74.7271 0008182 258.4775   5.9166  1.00276635 24273"
      },
      "geometry": {
        "type": "Point",
        "coordinates": [
          157.72836203912917,
          1.675050362689282
        ]
      }
    },
    {
      "type": "Feature",
      "properties": {
        "norad_id": 44299,
        "name": "COSMOS 2534 (758)",
        "group": "gnss",
        "lat": 28.544024467739728,
        "lon": -146.19255784564356,
        "alt_km": 19133.442180416896,
        "timestamp": "2025-12-19T18:58:41.832393+00:00",
        "meta_object_name": "COSMOS 2534 (758)",
        "meta_object_id": "2019-030A",
        "meta_epoch": "2025-12-18T18:30:09.690336",
        "meta_mean_motion": 2.13102412,
        "meta_eccentricity": 0.0008748,
        "meta_inclination": 64.3658,
        "meta_ra_of_asc_node": 198.6898,
        "meta_arg_of_pericenter": 284.2192,
        "meta_mean_anomaly": 45.4012,
        "meta_ephemeris_type": 0,
        "meta_classification_type": "U",
        "meta_norad_cat_id": 44299,
        "meta_element_set_no": 999,
        "meta_rev_at_epoch": 5107,
        "meta_bstar": 0,
        "meta_mean_motion_dot": 1.08e-06,
        "meta_mean_motion_ddot": 0,
        "tle_line1": "1 44299U 19030A   25352.77094549  .00000108  00000+0  00000+0 0  9990",
        "tle_line2": "2 44299  64.3658 198.6898 0008748 284.2192  45.4012  2.13102412 51071"
      },
      "geometry": {
        "type": "Point",
        "coordinates": [
          -146.19255784564356,
          28.544024467739728
        ]
      }
    },
    {
      "type": "Feature",
      "properties": {
        "norad_id": 44337,
        "name": "BEIDOU-3 IGSO-2 (C39)",
        "group": "gnss",
        "lat": -22.150544987316312,
        "lon": 143.96690677950616,
        "alt_km": 35892.36599081636,
        "timestamp": "2025-12-19T18:58:41.832406+00:00",
        "meta_object_name": "BEIDOU-3 IGSO-2 (C39)",
        "meta_object_id": "2019-035A",
        "meta_epoch": "2025-12-18T20:43:04.464768",
        "meta_mean_motion": 1.00269481,
        "meta_eccentricity": 0.00375097,
        "meta_inclination": 55.2274,
        "meta_ra_of_asc_node": 160.4476,
        "meta_arg_of_pericenter": 202.2689,
        "meta_mean_anomaly": 155.2054,
        "meta_ephemeris_type": 0,
        "meta_classification_type": "U",
        "meta_norad_cat_id": 44337,
        "meta_element_set_no": 999,
        "meta_rev_at_epoch": 2385,
        "meta_bstar": 0,
        "meta_mean_motion_dot": -5.3e-07,
        "meta_mean_motion_ddot": 0,
        "tle_line1": "1 44337U 19035A   25352.86324612 -.00000053  00000+0  00000+0 0  9995",
        "tle_line2": "2 44337  55.2274 160.4476 0037509 202.2689 155.2054  1.00269481 23850"
      },
      "geometry": {
        "type": "Point",
        "coordinates": [
          143.96690677950616,
          -22.150544987316312
        ]
      }
    },
    {
      "type": "Feature",
      "properties": {
        "norad_id": 44506,
        "name": "GPS BIII-2  (PRN 18)",
        "group": "gnss",
        "lat": 55.690787645398814,
        "lon": 70.07354969031012,
        "alt_km": 20220.798536995095,
        "timestamp": "2025-12-19T18:58:41.832420+00:00",
        "meta_object_name": "GPS BIII-2  (PRN 18)",
        "meta_object_id": "2019-056A",
        "meta_epoch": "2025-12-19T05:28:09.023808",
        "meta_mean_motion": 2.00566646,
        "meta_eccentricity": 0.00577244,
        "meta_inclination": 55.7191,
        "meta_ra_of_asc_node": 338.2952,
        "meta_arg_of_pericenter": 198.526,
        "meta_mean_anomaly": 206.6724,
        "meta_ephemeris_type": 0,
        "meta_classification_type": "U",
        "meta_norad_cat_id": 44506,
        "meta_element_set_no": 999,
        "meta_rev_at_epoch": 4646,
        "meta_bstar": 0,
        "meta_mean_motion_dot": -8.1e-07,
        "meta_mean_motion_ddot": 0,
        "tle_line1": "1 44506U 19056A   25353.22788222 -.00000081  00000+0  00000+0 0  9999",
        "tle_line2": "2 44506  55.7191 338.2952 0057724 198.5260 206.6724  2.00566646 46469"
      },
      "geometry": {
        "type": "Point",
        "coordinates": [
          70.07354969031012,
          55.690787645398814
        ]
      }
    },
    {
      "type": "Feature",
      "properties": {
        "norad_id": 44542,
        "name": "BEIDOU-3 M24 (C46)",
        "group": "gnss",
        "lat": -50.97838229185643,
        "lon": 126.59209503245728,
        "alt_km": 21537.60249979411,
        "timestamp": "2025-12-19T18:58:41.832431+00:00",
        "meta_object_name": "BEIDOU-3 M24 (C46)",
        "meta_object_id": "2019-061A",
        "meta_epoch": "2025-12-18T19:48:47.972736",
        "meta_mean_motion": 1.86229393,
        "meta_eccentricity": 0.00096105,
        "meta_inclination": 54.4002,
        "meta_ra_of_asc_node": 188.8106,
        "meta_arg_of_pericenter": 25.1866,
        "meta_mean_anomaly": 334.925,
        "meta_ephemeris_type": 0,
        "meta_classification_type": "U",
        "meta_norad_cat_id": 44542,
        "meta_element_set_no": 999,
        "meta_rev_at_epoch": 4243,
        "meta_bstar": 0,
        "meta_mean_motion_dot": 1.06e-06,
        "meta_mean_motion_ddot": 0,
        "tle_line1": "1 44542U 19061A   25352.82555524  .00000106  00000+0  00000+0 0  9994",
        "tle_line2": "2 44542  54.4002 188.8106 0009610  25.1866 334.9250  1.86229393 42434"
      },
      "geometry": {
        "type": "Point",
        "coordinates": [
          126.59209503245728,
          -50.97838229185643
        ]
      }
    },
    {
      "type": "Feature",
      "properties": {
        "norad_id": 44543,
        "name": "BEIDOU-3 M23 (C45)",
        "group": "gnss",
        "lat": -16.097570852096254,
        "lon": 20.691960227234134,
        "alt_km": 21547.48712582893,
        "timestamp": "2025-12-19T18:58:41.832442+00:00",
        "meta_object_name": "BEIDOU-3 M23 (C45)",
        "meta_object_id": "2019-061B",
        "meta_epoch": "2025-12-19T04:54:38.810304",
        "meta_mean_motion": 1.86227724,
        "meta_eccentricity": 0.0006055,
        "meta_inclination": 54.3992,
        "meta_ra_of_asc_node": 188.7663,
        "meta_arg_of_pericenter": 24.9207,
        "meta_mean_anomaly": 142.055,
        "meta_ephemeris_type": 0,
        "meta_classification_type": "U",
        "meta_norad_cat_id": 44543,
        "meta_element_set_no": 999,
        "meta_rev_at_epoch": 4244,
        "meta_bstar": 0,
        "meta_mean_motion_dot": 1.04e-06,
        "meta_mean_motion_ddot": 0,
        "tle_line1": "1 44543U 19061B   25353.20461586  .00000104  00000+0  00000+0 0  9990",
        "tle_line2": "2 44543  54.3992 188.7663 0006055  24.9207 142.0550  1.86227724 42443"
      },
      "geometry": {
        "type": "Point",
        "coordinates": [
          20.691960227234134,
          -16.097570852096254
        ]
      }
    },
    {
      "type": "Feature",
      "properties": {
        "norad_id": 44624,
        "name": "EUTELSAT 5 WEST B (EGNOS/PRN 121)",
        "group": "gnss",
        "lat": 0.04878380397341235,
        "lon": 8.33847879528432,
        "alt_km": 35788.460447121965,
        "timestamp": "2025-12-19T18:58:41.832453+00:00",
        "meta_object_name": "EUTELSAT 5 WEST B (EGNOS/PRN 121)",
        "meta_object_id": "2019-067A",
        "meta_epoch": "2025-12-19T06:23:28.768416",
        "meta_mean_motion": 1.00271263,
        "meta_eccentricity": 0.00029971,
        "meta_inclination": 0.0687,
        "meta_ra_of_asc_node": 332.7359,
        "meta_arg_of_pericenter": 295.3999,
        "meta_mean_anomaly": 270.859,
        "meta_ephemeris_type": 0,
        "meta_classification_type": "U",
        "meta_norad_cat_id": 44624,
        "meta_element_set_no": 999,
        "meta_rev_at_epoch": 2263,
        "meta_bstar": 0,
        "meta_mean_motion_dot": -1.7e-07,
        "meta_mean_motion_ddot": 0,
        "tle_line1": "1 44624U 19067A   25353.26630519 -.00000017  00000+0  00000+0 0  9990",
        "tle_line2": "2 44624   0.0687 332.7359 0002997 295.3999 270.8590  1.00271263 22634"
      },
      "geometry": {
        "type": "Point",
        "coordinates": [
          8.33847879528432,
          0.04878380397341235
        ]
      }
    }
  ]
}